COSMOS 2251 DEB         
1 34639U 93036XL  17345.90698095  .00001283  00000-0  33322-3 0  9992
2 34639  74.0326 185.7586 0045922 261.5515 162.6474 14.50137614460604
